HST                     
1 20580U 90037B   22076.38945456  .00001936  00000+0  10482-3 0  9991
2 20580  28.4708  58.6360 0002837 122.7441   4.3064 15.10139115552281
POLAR                   
1 23802U 96013A   22074.06649437  .00000281  00000+0  00000+0 0  9997
2 23802  78.7466 242.5605 5852270 262.0890  31.5456  1.29846831124660
SWAS                    
1 25560U 98071A   22076.55463952  .00001408  00000+0  13880-3 0  9994
2 25560  69.8983 217.6685 0004867 107.8940 252.2747 14.94439396264296
CXO                     
1 25867U 99040B   22078.14093854  .00001067  00000+0  00000+0 0  9995
2 25867  47.8791 241.2785 8712300 230.9353   0.5805  0.37816697 11457
XMM-NEWTON              
1 25989U 99066A   22074.75501167  .00000215  00000+0  00000+0 0  9996
2 25989  70.3150 306.5026 6176827  87.7984 359.8387  0.50133757 29570
TERRA                   
1 25994U 99068A   22076.53802642  .00000242  00000+0  63475-4 0  9994
2 25994  98.1448 150.5356 0001318  98.0159  14.8751 14.57144990183119
CLUSTER II-FM7 (SAMBA)  
1 26410U 00041A   22078.41807296 -.00000004  00000+0  00000+0 0  9997
2 26410 133.7671 346.9027 5450007 197.6635   0.2776  0.44174847 13412
CLUSTER II-FM6 (SALSA)  
1 26411U 00041B   22078.39328633 -.00000121  00000+0  00000+0 0  9998
2 26411 135.5431 349.8568 7067261 202.2406   0.2120  0.44214698 24487
CLUSTER II-FM5 (RUMBA)  
1 26463U 00045A   22078.39765201 -.00000013  00000+0  00000+0 0  9995
2 26463 139.1268 350.0955 6590323 202.9413   0.2772  0.44215543 13346
CLUSTER II-FM8 (TANGO)  
1 26464U 00045B   22078.40102231 -.00000004  00000+0  00000+0 0  9996
2 26464 133.7703 346.8952 5446676 197.6801   0.1492  0.44219265 61090
ODIN                    
1 26702U 01007A   22076.58491641  .00002827  00000+0  18157-3 0  9993
2 26702  97.5269  93.0224 0009039 239.7031 120.3304 15.09228837152414
TIMED                   
1 26998U 01055B   22076.50654190  .00000568  00000+0  65175-4 0  9998
2 26998  74.0707 102.8010 0001918 303.4610  56.6388 14.88500910 99324
RHESSI                  
1 27370U 02004A   22076.55480400  .00014665  00000+0  36791-3 0  9998
2 27370  38.0316 214.1544 0009141 164.6726 195.4326 15.39405314112425
INTEGRAL                
1 27540U 02048A   22076.35292958 -.00000092  00000+0  00000+0 0  9992
2 27540  72.5995  65.2330 8937397 299.4598 284.1128  0.37586686 20803
CORIOLIS                
1 27640U 03001A   22076.59533207  .00000063  00000+0  51061-4 0  9999
2 27640  98.7210  87.0419 0014261   6.3853 100.6569 14.19109067993945
SORCE                   
1 27651U 03004A   22076.49290143  .00001100  00000+0  12667-3 0  9993
2 27651  39.9968  10.8596 0023468 189.5766 170.4578 14.89632857 39356
MOST                    
1 27843U 03031D   22076.58548516  .00000038  00000+0  37760-4 0  9997
2 27843  98.7105  85.5298 0010918  56.8938 303.3286 14.20666444970201
SCISAT 1                
1 27858U 03036A   22076.22285643  .00000448  00000+0  67850-4 0  9996
2 27858  73.9356   6.1768 0006568  62.0815 298.1024 14.77462804  1819
SWIFT                   
1 28485U 04047A   22076.48656497  .00003166  00000+0  18196-3 0  9991
2 28485  20.5558 235.6899 0010505 211.8202 148.1598 15.05748510949669
CLOUDSAT                
1 29107U 06016A   22076.54512419  .00000223  00000+0  53144-4 0  9997
2 29107  98.3180  35.9013 0002129 208.7956 151.3128 14.62821256845591
CALIPSO                 
1 29108U 06016B   22076.54021959  .00000696  00000+0  14597-3 0  9994
2 29108  98.3148  35.5047 0001313  78.8625 281.2723 14.62760103845588
HINODE (SOLAR-B)        
1 29479U 06041A   22076.56350752  .00000351  00000+0  74780-4 0  9990
2 29479  98.1274  92.8725 0019239 151.8329 208.3918 14.64711669827306
SJ-6C                   
1 29505U 06046A   22076.58344749  .00001804  00000+0  16750-3 0  9992
2 29505  97.7864  98.1982 0006104  71.5612 288.6278 14.95644149838966
SJ-6D                   
1 29506U 06046B   22076.51634492  .00000826  00000+0  83301-4 0  9993
2 29506  97.8050  98.3283 0003064 135.1856 224.9622 14.93799130838415
AGILE                   
1 31135U 07013A   22073.08551680  .00013334  00000+0  33476-3 0  9990
2 31135   2.4660 263.0005 0010641  29.4497 330.6156 15.35805668462256
AIM                     
1 31304U 07015A   22076.30831532  .00006358  00000+0  33376-3 0  9992
2 31304  97.8582 352.1837 0004633 353.9167   6.2008 15.16092435817223
FGRST (GLAST)           
1 33053U 08029A   22076.37129547  .00001679  00000+0  78516-4 0  9991
2 33053  25.5830  74.9308 0012127 191.7222 168.3032 15.11880468759744
WISE                    
1 36119U 09071A   22076.55235503  .00004574  00000+0  14901-3 0  9999
2 36119  97.2521 112.8307 0000576 260.5433  99.5744 15.32321694681426
SDO                     
1 36395U 10005A   22076.58086889 -.00000048  00000+0  00000+0 0  9992
2 36395  31.4745 110.7094 0001808 251.4124 280.1446  1.00275064 44491
CRYOSAT 2               
1 36508U 10013A   22076.59073407  .00000162  00000+0  39478-4 0  9992
2 36508  92.0232 261.8146 0005332 175.4190 184.7066 14.51907171632807
X-SAT                   
1 37389U 11015C   22076.41792548  .00000051  00000+0  39757-4 0  9995
2 37389  98.3482 114.3056 0013297 217.9723 142.0527 14.24407350567109
GCOM-W1 (SHIZUKU)       
1 38337U 12025A   22076.42417490  .00000359  00000+0  89755-4 0  9996
2 38337  98.1949  18.3496 0001747 105.2176   5.4395 14.57107784522917
NUSTAR                  
1 38358U 12031A   22075.29363133  .00002699  00000+0  20579-3 0  9991
2 38358   6.0274 321.3846 0010951  72.2589 287.8735 14.88957594530945
NEOSSAT                 
1 39089U 13009D   22076.53639855  .00000140  00000+0  64515-4 0  9992
2 39089  98.4279 275.1109 0011157 185.4110 174.6956 14.34626890474039
BRITE-AUSTRIA           
1 39091U 13009F   22076.54007703  .00000139  00000+0  63621-4 0  9992
2 39091  98.4118 276.1976 0010310 185.7529 174.3540 14.35237839474245
IRIS                    
1 39197U 13033A   22076.51587581  .00000637  00000+0  92782-4 0  9993
2 39197  97.9691 263.1813 0026775 328.8158  31.1464 14.79071402470384
HISAKI (SPRINT-A)       
1 39253U 13049A   22076.52169348  .00000123  00000+0  82492-4 0  9998
2 39253  29.7184 191.9256 0137267  32.0487 328.8348 13.55265620420623
CASSIOPE                
1 39265U 13055A   22076.56303926  .00007800  00000+0  21364-3 0  9993
2 39265  80.9707   4.6105 0631567 230.0582 124.3482 14.36267271439135
STSAT-3                 
1 39422U 13066G   22076.50579776  .00001254  00000+0  13427-3 0  9990
2 39422  97.4724  86.6167 0021633 225.3023 134.6444 14.90215676452144
SWARM B                 
1 39451U 13067A   22076.54356397  .00000115  00000+0  34359-5 0  9993
2 39451  87.7444  88.8362 0002604  90.0666 270.0878 15.22236486446962
SWARM A                 
1 39452U 13067B   22076.51780107  .00006382  00000+0  12363-3 0  9992
2 39452  87.3545 258.0357 0003188  78.5719 281.5898 15.47475090467734
SWARM C                 
1 39453U 13067C   22076.51771325  .00006402  00000+0  12400-3 0  9990
2 39453  87.3398 257.6940 0003184  78.5558 281.6059 15.47476342467697
BRITE-CA1 (TORONTO)     
1 40020U 14033L   22076.40403367  .00000728  00000+0  13144-3 0  9993
2 40020  97.7656 240.1158 0086739 196.2359 163.6064 14.66895572414162
OCO 2                   
1 40059U 14035A   22076.53715969  .00000277  00000+0  71554-4 0  9994
2 40059  98.1941  19.2012 0001367  80.1844 279.9509 14.57129374409949
BRITE-PL2 (HEWELIUSZ)   
1 40119U 14049B   22076.50416308  .00000952  00000+0  11807-3 0  9992
2 40119  97.8805 173.1157 0017387 178.7154 181.4108 14.84894370410363
RESURS P2               
1 40360U 14087A   22076.57273417  .00005984  00000+0  17517-3 0  9995
2 40360  97.2098 163.3759 0011019  65.1572  47.5664 15.35550343404152
MMS 1                   
1 40482U 15011A   22067.12500000 -.00002004  00000+0  00000+0 0  9996
2 40482  33.0277 109.4574 8570985  46.2931 172.1023  0.28450470 13010
MMS 2                   
1 40483U 15011B   22067.12500000 -.00002004  00000+0  00000+0 0  9997
2 40483  33.0259 109.4605 8570419  46.2990 172.0703  0.28450433 13072
MMS 3                   
1 40484U 15011C   22067.12500000 -.00002003  00000+0  00000+0 0  9997
2 40484  33.0310 109.4378 8569805  46.3068 172.0762  0.28449431 12757
MMS 4                   
1 40485U 15011D   22067.12500000 -.00002003  00000+0  00000+0 0  9998
2 40485  33.0281 109.4599 8569571  46.2911 172.0937  0.28450434 12968
ASTROSAT                
1 40930U 15052A   22075.26034238  .00001357  00000+0  10088-3 0  9998
2 40930   5.9968 122.7915 0009192 276.4981  83.4100 14.76524933349354
DAMPE                   
1 41173U 15078A   22076.51019773  .00000995  00000+0  43586-4 0  9999
2 41173  97.3726  68.7223 0014131 156.6580 319.6040 15.24242498347571
PISAT                   
1 41784U 16059B   22076.40912823  .00000519  00000+0  10759-3 0  9990
2 41784  97.9291 123.2921 0033220 100.3909 260.1041 14.63780294292220
HXMT (HUIYAN)           
1 42758U 17034A   22076.48692491  .00003109  00000+0  20205-3 0  9995
2 42758  43.0162 133.8954 0007353  55.7006  77.5160 15.09855666262274
FLYING LAPTOP           
1 42831U 17042G   22076.56234764  .00001491  00000+0  15368-3 0  9996
2 42831  97.4359 296.3073 0012863 320.7348  39.2962 14.91570017254393
PICSAT                  
1 43132U 18004X   22076.21461546  .00010166  00000+0  36719-3 0  9994
2 43132  97.3796 153.2607 0007362 332.9042  27.1812 15.28647735232300
ZHANGZHENG-1 (CSES)     
1 43194U 18015C   22076.48357301  .00008644  00000+0  39517-3 0  9993
2 43194  97.5069 207.4539 0011500  67.7324 357.1024 15.20738869228648
ICON                    
1 44628U 19068A   22076.43408418  .00001793  00000+0  15122-3 0  9990
2 44628  26.9887 189.8454 0019080  65.3904 294.8640 14.92412773132807
SALSAT                  
1 46495U 20068K   22076.56611971  .00001852  00000+0  13822-3 0  9991
2 46495  97.7232  17.9221 0015387 223.9784 136.0218 15.04011507 80374
IXPE                    
1 49954U 21121A   22075.43114910  .00002675  00000+0  18846-3 0  9996
2 49954   0.2312 345.3511 0011250   6.6530   7.9785 14.90968984 14528
